{"type":"FeatureCollection","name":"Moscow outside mask","properties":{"displayPurpose":"Power BI Azure Maps reference layer","color":"#C92743","outsideTransparencyPercent":72,"accuracyNote":"Cartographic display boundary; not suitable for cadastral or legal measurements.","source":"Wikimedia Commons Data:Russia/Moscow.map (CC0), map data based on OpenStreetMap."},"features":[{"type":"Feature","properties":{"layer":"outside_mask","name":"Территория вне Москвы","fillColor":"#C92743","fillOpacity":0.28,"color":"#C92743","strokeOpacity":0,"strokeWidth":0},"geometry":{"type":"Polygon","coordinates":[[[34.0,54.0],[34.0,58.0],[42.0,58.0],[42.0,54.0],[34.0,54.0]],[[37.3350830078125,55.956257247029875],[37.3350830078125,55.953181910607235],[37.33233642578125,55.95164415077964],[37.33233642578125,55.93010909927048],[37.340576171875,55.925492887507104],[37.35430908203125,55.92241510749207],[37.35980224609375,55.91779797918402],[37.35980224609375,55.89470408732112],[37.37078857421875,55.88084115066762],[37.37078857421875,55.874678255910965],[37.35980224609375,55.870055442825276],[37.3350830078125,55.86851438283388],[37.32684326171875,55.865432079398936],[37.32684326171875,55.860808165596524],[37.32958984375,55.8592667386838],[37.32958984375,55.84076484502145],[37.3350830078125,55.83459558968219],[37.3350830078125,55.814538749105665],[37.3460693359375,55.80682182598554],[37.3460693359375,55.8021909376923],[37.34332275390625,55.800647185849854],[37.34332275390625,55.79292750849361],[37.33782958984375,55.78520630077766],[37.318603515625,55.775938831214035],[37.318603515625,55.76821425613262],[37.33233642578125,55.76512399746237],[37.34881591796875,55.766669157415784],[37.3570556640625,55.76357877627111],[37.362548828125,55.75739727910134],[37.362548828125,55.74812319598926],[37.36529541015625,55.74657730109551],[37.36529541015625,55.73884690779832],[37.3680419921875,55.737300645364094],[37.3680419921875,55.72802178422589],[37.362548828125,55.72183465143571],[37.362548828125,55.715646538256706],[37.37628173828125,55.701719698626604],[37.406494140625,55.68778789441058],[37.406494140625,55.68004585763984],[37.4010009765625,55.67539989987565],[37.4010009765625,55.672302288135526],[37.3900146484375,55.66765541065344],[37.3790283203125,55.66765541065344],[37.34332275390625,55.67849726636285],[37.33233642578125,55.67849726636285],[37.32135009765625,55.67385112466286],[37.31585693359375,55.66300798129398],[37.3076171875,55.65681055027836],[37.24444580078125,55.655261039205755],[37.23345947265625,55.6506121380024],[37.230712890625,55.638212369338305],[37.2197265625,55.6304605202758],[37.20599365234375,55.62735935120456],[37.17852783203125,55.625808674639586],[37.17303466796875,55.62425793671998],[37.1702880859375,55.62115627681172],[37.1702880859375,55.616503326757325],[37.164794921875,55.61340105324467],[37.14007568359375,55.61184982444154],[37.1263427734375,55.60719576982953],[37.098876953125,55.60564429555368],[37.07415771484375,55.59633416105383],[37.07415771484375,55.59167826520283],[37.09063720703125,55.58081235975159],[37.09613037109375,55.57304915697981],[37.11260986328125,55.559071523778954],[37.11260986328125,55.55441120737742],[37.10162353515625,55.54664278507962],[37.10162353515625,55.540426941683066],[37.11260986328125,55.529546850808984],[37.1153564453125,55.515553739199554],[37.1263427734375,55.50622223311397],[37.12359619140625,55.49844428807765],[37.120849609375,55.496888514695186],[37.12359619140625,55.47821443975123],[37.09063720703125,55.46887408267305],[37.09063720703125,55.459531512155685],[37.087890625,55.4579742018546],[37.07965087890625,55.456416830060135],[37.05218505859375,55.46576013845191],[37.04119873046875,55.46576013845191],[37.01373291015625,55.456416830060135],[37.0054931640625,55.456416830060135],[36.989013671875,55.461088760964685],[36.9835205078125,55.464203074111516],[36.97802734375,55.47198778095649],[36.97802734375,55.476657867270866],[36.98077392578125,55.47821443975123],[36.98077392578125,55.48755258366648],[36.97802734375,55.48910872583647],[36.97802734375,55.49377678354484],[36.95330810546875,55.50466676701924],[36.95330810546875,55.51244348296873],[36.9395751953125,55.51866374964632],[36.91485595703125,55.51866374964632],[36.89013671875,55.50933298094362],[36.82147216796875,55.50933298094362],[36.813232421875,55.50622223311397],[36.813232421875,55.50311123946952],[36.81048583984375,55.50155565046353],[36.81048583984375,55.476657867270866],[36.79949951171875,55.462645948282876],[36.79949951171875,55.44551350557732],[36.7967529296875,55.443955641789934],[36.7967529296875,55.43460716741887],[36.79949951171875,55.43304887307066],[36.79949951171875,55.428373620938174],[36.84619140625,55.40187006651442],[36.84619140625,55.395631351643935],[36.84344482421875,55.39407151906858],[36.84344482421875,55.390951669279694],[36.83795166015625,55.387831573298065],[36.83795166015625,55.383150967692],[36.901123046875,55.35505569904666],[36.9285888671875,55.339438596103754],[36.9395751953125,55.3285029595092],[36.94781494140625,55.32381533415258],[36.96978759765625,55.31756430456596],[36.97802734375,55.311312289254296],[36.97802734375,55.308185911926266],[36.98077392578125,55.30662263083976],[36.98077392578125,55.297241650326384],[36.9945068359375,55.2878584513397],[36.9945068359375,55.28160175272863],[36.9835205078125,55.275344067927314],[36.9560546875,55.26752057497254],[36.94781494140625,55.26282573943077],[36.93408203125,55.24404084824039],[36.93408203125,55.23777724460216],[36.9395751953125,55.23151265420885],[36.94232177734375,55.220547246398965],[36.9615478515625,55.20174237199295],[36.97528076171875,55.18292861262749],[36.989013671875,55.17822378425703],[37.00274658203125,55.17665538469536],[37.010986328125,55.171949815678225],[37.01373291015625,55.16881246104418],[37.01373291015625,55.15939891564317],[37.0164794921875,55.1578297753446],[37.0164794921875,55.15469130953756],[37.03570556640625,55.1421349766605],[37.05767822265625,55.14056515719473],[37.07965087890625,55.14527443034712],[37.10711669921875,55.146844064570466],[37.1702880859375,55.16410596613411],[37.17303466796875,55.16724369113661],[37.17303466796875,55.20957881597362],[37.1702880859375,55.21114591968025],[37.1702880859375,55.220547246398965],[37.17303466796875,55.222113918276975],[37.17303466796875,55.225247076979954],[37.18402099609375,55.23151265420885],[37.19775390625,55.23464507275492],[37.2142333984375,55.24404084824039],[37.22247314453125,55.24560659497892],[37.24444580078125,55.23777724460216],[37.263671875,55.23777724460216],[37.28289794921875,55.242475039834716],[37.29388427734375,55.23777724460216],[37.29937744140625,55.225247076979954],[37.31036376953125,55.220547246398965],[37.31585693359375,55.220547246398965],[37.3460693359375,55.23464507275492],[37.39825439453125,55.24717228005155],[37.406494140625,55.25186896528666],[37.4119873046875,55.25969554081153],[37.4119873046875,55.26752057497254],[37.41473388671875,55.26908539685494],[37.41748046875,55.28316601983359],[37.42022705078125,55.2847302253029],[37.42022705078125,55.292550328159265],[37.41473388671875,55.298805301131885],[37.41473388671875,55.3050592881366],[37.428466796875,55.31443842013083],[37.428466796875,55.32537793753919],[37.4229736328125,55.33006537809515],[37.4229736328125,55.341000583532505],[37.439453125,55.35193277111789],[37.439453125,55.364423005015944],[37.46966552734375,55.37378809447296],[37.46966552734375,55.376909298447735],[37.472412109375,55.37846980809507],[37.472412109375,55.39407151906858],[37.47515869140625,55.395631351643935],[37.47515869140625,55.403429591380664],[37.472412109375,55.404989054708906],[37.472412109375,55.40966707547835],[37.4669189453125,55.41434454245161],[37.450439453125,55.419021455663064],[37.43121337890625,55.43304887307066],[37.4119873046875,55.43772357157903],[37.40374755859375,55.44239771649769],[37.3955078125,55.45174434570377],[37.39825439453125,55.4579742018546],[37.44219970703125,55.47043096255634],[37.48065185546875,55.45330190198601],[37.4833984375,55.45018672792307],[37.4833984375,55.440839729699306],[37.48614501953125,55.4392816813935],[37.48614501953125,55.43460716741887],[37.4888916015625,55.43149051720866],[37.50811767578125,55.42681508052714],[37.54656982421875,55.428373620938174],[37.54656982421875,55.43616540025457],[37.54107666015625,55.440839729699306],[37.54107666015625,55.44862904864261],[37.55206298828125,55.459531512155685],[37.55755615234375,55.47043096255634],[37.57403564453125,55.481327400283],[37.6097412109375,55.48755258366648],[37.62347412109375,55.496888514695186],[37.62347412109375,55.50155565046353],[37.6097412109375,55.51399864180778],[37.5987548828125,55.5171087751453],[37.58502197265625,55.52643770052549],[37.58502197265625,55.53265575535462],[37.5877685546875,55.53421011547897],[37.5877685546875,55.540426941683066],[37.59051513671875,55.541980994667206],[37.59051513671875,55.545088916364186],[37.60699462890625,55.56373128749004],[37.6207275390625,55.56994344609083],[37.68389892578125,55.56839049854541],[37.703125,55.57770726282799],[37.74981689453125,55.588574027722586],[37.75531005859375,55.59167826520283],[37.75531005859375,55.59478225715104],[37.7635498046875,55.60254116288646],[37.7855224609375,55.614952220682824],[37.823974609375,55.6304605202758],[37.83221435546875,55.638212369338305],[37.83221435546875,55.64131267954422],[37.83770751953125,55.64751256386593],[37.8843994140625,55.67075339029238],[37.8953857421875,55.672302288135526],[37.9173583984375,55.66610632885506],[37.92559814453125,55.66610632885506],[37.933837890625,55.669204431132115],[37.9613037109375,55.669204431132115],[37.9722900390625,55.67385112466286],[37.9722900390625,55.68004585763984],[37.966796875,55.68778789441058],[37.966796875,55.69398042036789],[37.96405029296875,55.69552839860978],[37.96405029296875,55.70017196556243],[37.96954345703125,55.70791001798447],[37.96954345703125,55.715646538256706],[37.966796875,55.7187407174],[37.9283447265625,55.732661490488404],[37.90087890625,55.72802178422589],[37.88714599609375,55.72956841424743],[37.8843994140625,55.73111498300117],[37.8843994140625,55.737300645364094],[37.889892578125,55.74193924888809],[37.889892578125,55.74966902963082],[37.88714599609375,55.75276051316258],[37.8624267578125,55.755851751701194],[37.8514404296875,55.76821425613262],[37.84869384765625,55.78520630077766],[37.8514404296875,55.78675066475745],[37.8514404296875,55.78983920905953],[37.85968017578125,55.79447156638841],[37.889892578125,55.800647185849854],[37.89263916015625,55.80527825775882],[37.90911865234375,55.81608195013615],[37.90911865234375,55.81916816861408],[37.90362548828125,55.822254142323274],[37.8843994140625,55.82688264396862],[37.845947265625,55.825339871274224],[37.8404541015625,55.82688264396862],[37.76904296875,55.86389083595277],[37.70037841796875,55.90394329427282],[37.66741943359375,55.91010154315492],[37.648193359375,55.90240357925539],[37.6317138671875,55.90240357925539],[37.57403564453125,55.91625881419995],[37.56854248046875,55.919337083059865],[37.56854248046875,55.92241510749207],[37.582275390625,55.93010909927048],[37.58502197265625,55.93626319292647],[37.57952880859375,55.94087812169317],[37.57952880859375,55.94856844788534],[37.582275390625,55.950106329872796],[37.582275390625,55.953181910607235],[37.5712890625,55.959332339151246],[37.54107666015625,55.956257247029875],[37.50262451171875,55.93318626828863],[37.50262451171875,55.93010909927048],[37.52459716796875,55.91779797918402],[37.52459716796875,55.91164095258512],[37.5108642578125,55.90240357925539],[37.46417236328125,55.89316400555563],[37.428466796875,55.89008365863554],[37.40374755859375,55.90240357925539],[37.39825439453125,55.90856207260991],[37.39825439453125,55.913180300901814],[37.40374755859375,55.919337083059865],[37.42572021484375,55.93318626828863],[37.42572021484375,55.93626319292647],[37.4229736328125,55.93780156360606],[37.4229736328125,55.94549250066342],[37.42572021484375,55.947030504816],[37.42572021484375,55.950106329872796],[37.4229736328125,55.953181910607235],[37.4119873046875,55.95779482362755],[37.3900146484375,55.956257247029875],[37.37353515625,55.959332339151246],[37.3680419921875,55.96394451929154],[37.3460693359375,55.96394451929154],[37.3350830078125,55.956257247029875]]]}},{"type":"Feature","properties":{"layer":"moscow_boundary","name":"Административная граница Москвы","fillOpacity":0,"color":"#C92743","strokeColor":"#C92743","strokeOpacity":0.95,"strokeWidth":2},"geometry":{"type":"LineString","coordinates":[[37.3460693359375,55.96394451929154],[37.3350830078125,55.956257247029875],[37.3350830078125,55.953181910607235],[37.33233642578125,55.95164415077964],[37.33233642578125,55.93010909927048],[37.340576171875,55.925492887507104],[37.35430908203125,55.92241510749207],[37.35980224609375,55.91779797918402],[37.35980224609375,55.89470408732112],[37.37078857421875,55.88084115066762],[37.37078857421875,55.874678255910965],[37.35980224609375,55.870055442825276],[37.3350830078125,55.86851438283388],[37.32684326171875,55.865432079398936],[37.32684326171875,55.860808165596524],[37.32958984375,55.8592667386838],[37.32958984375,55.84076484502145],[37.3350830078125,55.83459558968219],[37.3350830078125,55.814538749105665],[37.3460693359375,55.80682182598554],[37.3460693359375,55.8021909376923],[37.34332275390625,55.800647185849854],[37.34332275390625,55.79292750849361],[37.33782958984375,55.78520630077766],[37.318603515625,55.775938831214035],[37.318603515625,55.76821425613262],[37.33233642578125,55.76512399746237],[37.34881591796875,55.766669157415784],[37.3570556640625,55.76357877627111],[37.362548828125,55.75739727910134],[37.362548828125,55.74812319598926],[37.36529541015625,55.74657730109551],[37.36529541015625,55.73884690779832],[37.3680419921875,55.737300645364094],[37.3680419921875,55.72802178422589],[37.362548828125,55.72183465143571],[37.362548828125,55.715646538256706],[37.37628173828125,55.701719698626604],[37.406494140625,55.68778789441058],[37.406494140625,55.68004585763984],[37.4010009765625,55.67539989987565],[37.4010009765625,55.672302288135526],[37.3900146484375,55.66765541065344],[37.3790283203125,55.66765541065344],[37.34332275390625,55.67849726636285],[37.33233642578125,55.67849726636285],[37.32135009765625,55.67385112466286],[37.31585693359375,55.66300798129398],[37.3076171875,55.65681055027836],[37.24444580078125,55.655261039205755],[37.23345947265625,55.6506121380024],[37.230712890625,55.638212369338305],[37.2197265625,55.6304605202758],[37.20599365234375,55.62735935120456],[37.17852783203125,55.625808674639586],[37.17303466796875,55.62425793671998],[37.1702880859375,55.62115627681172],[37.1702880859375,55.616503326757325],[37.164794921875,55.61340105324467],[37.14007568359375,55.61184982444154],[37.1263427734375,55.60719576982953],[37.098876953125,55.60564429555368],[37.07415771484375,55.59633416105383],[37.07415771484375,55.59167826520283],[37.09063720703125,55.58081235975159],[37.09613037109375,55.57304915697981],[37.11260986328125,55.559071523778954],[37.11260986328125,55.55441120737742],[37.10162353515625,55.54664278507962],[37.10162353515625,55.540426941683066],[37.11260986328125,55.529546850808984],[37.1153564453125,55.515553739199554],[37.1263427734375,55.50622223311397],[37.12359619140625,55.49844428807765],[37.120849609375,55.496888514695186],[37.12359619140625,55.47821443975123],[37.09063720703125,55.46887408267305],[37.09063720703125,55.459531512155685],[37.087890625,55.4579742018546],[37.07965087890625,55.456416830060135],[37.05218505859375,55.46576013845191],[37.04119873046875,55.46576013845191],[37.01373291015625,55.456416830060135],[37.0054931640625,55.456416830060135],[36.989013671875,55.461088760964685],[36.9835205078125,55.464203074111516],[36.97802734375,55.47198778095649],[36.97802734375,55.476657867270866],[36.98077392578125,55.47821443975123],[36.98077392578125,55.48755258366648],[36.97802734375,55.48910872583647],[36.97802734375,55.49377678354484],[36.95330810546875,55.50466676701924],[36.95330810546875,55.51244348296873],[36.9395751953125,55.51866374964632],[36.91485595703125,55.51866374964632],[36.89013671875,55.50933298094362],[36.82147216796875,55.50933298094362],[36.813232421875,55.50622223311397],[36.813232421875,55.50311123946952],[36.81048583984375,55.50155565046353],[36.81048583984375,55.476657867270866],[36.79949951171875,55.462645948282876],[36.79949951171875,55.44551350557732],[36.7967529296875,55.443955641789934],[36.7967529296875,55.43460716741887],[36.79949951171875,55.43304887307066],[36.79949951171875,55.428373620938174],[36.84619140625,55.40187006651442],[36.84619140625,55.395631351643935],[36.84344482421875,55.39407151906858],[36.84344482421875,55.390951669279694],[36.83795166015625,55.387831573298065],[36.83795166015625,55.383150967692],[36.901123046875,55.35505569904666],[36.9285888671875,55.339438596103754],[36.9395751953125,55.3285029595092],[36.94781494140625,55.32381533415258],[36.96978759765625,55.31756430456596],[36.97802734375,55.311312289254296],[36.97802734375,55.308185911926266],[36.98077392578125,55.30662263083976],[36.98077392578125,55.297241650326384],[36.9945068359375,55.2878584513397],[36.9945068359375,55.28160175272863],[36.9835205078125,55.275344067927314],[36.9560546875,55.26752057497254],[36.94781494140625,55.26282573943077],[36.93408203125,55.24404084824039],[36.93408203125,55.23777724460216],[36.9395751953125,55.23151265420885],[36.94232177734375,55.220547246398965],[36.9615478515625,55.20174237199295],[36.97528076171875,55.18292861262749],[36.989013671875,55.17822378425703],[37.00274658203125,55.17665538469536],[37.010986328125,55.171949815678225],[37.01373291015625,55.16881246104418],[37.01373291015625,55.15939891564317],[37.0164794921875,55.1578297753446],[37.0164794921875,55.15469130953756],[37.03570556640625,55.1421349766605],[37.05767822265625,55.14056515719473],[37.07965087890625,55.14527443034712],[37.10711669921875,55.146844064570466],[37.1702880859375,55.16410596613411],[37.17303466796875,55.16724369113661],[37.17303466796875,55.20957881597362],[37.1702880859375,55.21114591968025],[37.1702880859375,55.220547246398965],[37.17303466796875,55.222113918276975],[37.17303466796875,55.225247076979954],[37.18402099609375,55.23151265420885],[37.19775390625,55.23464507275492],[37.2142333984375,55.24404084824039],[37.22247314453125,55.24560659497892],[37.24444580078125,55.23777724460216],[37.263671875,55.23777724460216],[37.28289794921875,55.242475039834716],[37.29388427734375,55.23777724460216],[37.29937744140625,55.225247076979954],[37.31036376953125,55.220547246398965],[37.31585693359375,55.220547246398965],[37.3460693359375,55.23464507275492],[37.39825439453125,55.24717228005155],[37.406494140625,55.25186896528666],[37.4119873046875,55.25969554081153],[37.4119873046875,55.26752057497254],[37.41473388671875,55.26908539685494],[37.41748046875,55.28316601983359],[37.42022705078125,55.2847302253029],[37.42022705078125,55.292550328159265],[37.41473388671875,55.298805301131885],[37.41473388671875,55.3050592881366],[37.428466796875,55.31443842013083],[37.428466796875,55.32537793753919],[37.4229736328125,55.33006537809515],[37.4229736328125,55.341000583532505],[37.439453125,55.35193277111789],[37.439453125,55.364423005015944],[37.46966552734375,55.37378809447296],[37.46966552734375,55.376909298447735],[37.472412109375,55.37846980809507],[37.472412109375,55.39407151906858],[37.47515869140625,55.395631351643935],[37.47515869140625,55.403429591380664],[37.472412109375,55.404989054708906],[37.472412109375,55.40966707547835],[37.4669189453125,55.41434454245161],[37.450439453125,55.419021455663064],[37.43121337890625,55.43304887307066],[37.4119873046875,55.43772357157903],[37.40374755859375,55.44239771649769],[37.3955078125,55.45174434570377],[37.39825439453125,55.4579742018546],[37.44219970703125,55.47043096255634],[37.48065185546875,55.45330190198601],[37.4833984375,55.45018672792307],[37.4833984375,55.440839729699306],[37.48614501953125,55.4392816813935],[37.48614501953125,55.43460716741887],[37.4888916015625,55.43149051720866],[37.50811767578125,55.42681508052714],[37.54656982421875,55.428373620938174],[37.54656982421875,55.43616540025457],[37.54107666015625,55.440839729699306],[37.54107666015625,55.44862904864261],[37.55206298828125,55.459531512155685],[37.55755615234375,55.47043096255634],[37.57403564453125,55.481327400283],[37.6097412109375,55.48755258366648],[37.62347412109375,55.496888514695186],[37.62347412109375,55.50155565046353],[37.6097412109375,55.51399864180778],[37.5987548828125,55.5171087751453],[37.58502197265625,55.52643770052549],[37.58502197265625,55.53265575535462],[37.5877685546875,55.53421011547897],[37.5877685546875,55.540426941683066],[37.59051513671875,55.541980994667206],[37.59051513671875,55.545088916364186],[37.60699462890625,55.56373128749004],[37.6207275390625,55.56994344609083],[37.68389892578125,55.56839049854541],[37.703125,55.57770726282799],[37.74981689453125,55.588574027722586],[37.75531005859375,55.59167826520283],[37.75531005859375,55.59478225715104],[37.7635498046875,55.60254116288646],[37.7855224609375,55.614952220682824],[37.823974609375,55.6304605202758],[37.83221435546875,55.638212369338305],[37.83221435546875,55.64131267954422],[37.83770751953125,55.64751256386593],[37.8843994140625,55.67075339029238],[37.8953857421875,55.672302288135526],[37.9173583984375,55.66610632885506],[37.92559814453125,55.66610632885506],[37.933837890625,55.669204431132115],[37.9613037109375,55.669204431132115],[37.9722900390625,55.67385112466286],[37.9722900390625,55.68004585763984],[37.966796875,55.68778789441058],[37.966796875,55.69398042036789],[37.96405029296875,55.69552839860978],[37.96405029296875,55.70017196556243],[37.96954345703125,55.70791001798447],[37.96954345703125,55.715646538256706],[37.966796875,55.7187407174],[37.9283447265625,55.732661490488404],[37.90087890625,55.72802178422589],[37.88714599609375,55.72956841424743],[37.8843994140625,55.73111498300117],[37.8843994140625,55.737300645364094],[37.889892578125,55.74193924888809],[37.889892578125,55.74966902963082],[37.88714599609375,55.75276051316258],[37.8624267578125,55.755851751701194],[37.8514404296875,55.76821425613262],[37.84869384765625,55.78520630077766],[37.8514404296875,55.78675066475745],[37.8514404296875,55.78983920905953],[37.85968017578125,55.79447156638841],[37.889892578125,55.800647185849854],[37.89263916015625,55.80527825775882],[37.90911865234375,55.81608195013615],[37.90911865234375,55.81916816861408],[37.90362548828125,55.822254142323274],[37.8843994140625,55.82688264396862],[37.845947265625,55.825339871274224],[37.8404541015625,55.82688264396862],[37.76904296875,55.86389083595277],[37.70037841796875,55.90394329427282],[37.66741943359375,55.91010154315492],[37.648193359375,55.90240357925539],[37.6317138671875,55.90240357925539],[37.57403564453125,55.91625881419995],[37.56854248046875,55.919337083059865],[37.56854248046875,55.92241510749207],[37.582275390625,55.93010909927048],[37.58502197265625,55.93626319292647],[37.57952880859375,55.94087812169317],[37.57952880859375,55.94856844788534],[37.582275390625,55.950106329872796],[37.582275390625,55.953181910607235],[37.5712890625,55.959332339151246],[37.54107666015625,55.956257247029875],[37.50262451171875,55.93318626828863],[37.50262451171875,55.93010909927048],[37.52459716796875,55.91779797918402],[37.52459716796875,55.91164095258512],[37.5108642578125,55.90240357925539],[37.46417236328125,55.89316400555563],[37.428466796875,55.89008365863554],[37.40374755859375,55.90240357925539],[37.39825439453125,55.90856207260991],[37.39825439453125,55.913180300901814],[37.40374755859375,55.919337083059865],[37.42572021484375,55.93318626828863],[37.42572021484375,55.93626319292647],[37.4229736328125,55.93780156360606],[37.4229736328125,55.94549250066342],[37.42572021484375,55.947030504816],[37.42572021484375,55.950106329872796],[37.4229736328125,55.953181910607235],[37.4119873046875,55.95779482362755],[37.3900146484375,55.956257247029875],[37.37353515625,55.959332339151246],[37.3680419921875,55.96394451929154],[37.3460693359375,55.96394451929154]]}}]}